MALLIGYONG-1            
1 58400U 23179A   24044.91482439  .00010955  00000+0  47580-3 0  9999
2 58400  97.4212 293.5963 0015238 349.0048  11.0853 15.22374119 12824
